GLOBALSTAR M023         
1 25621U 99004A   24210.02076997 -.00000068  00000+0  20111-3 0  9999
2 25621  52.0123 320.5132 0010748 130.9809  40.5242 12.62464325174876
GLOBALSTAR M040         
1 25622U 99004B   24209.54377623 -.00000079  00000+0  13698-3 0  9999
2 25622  51.9940 325.6378 0001209  79.6925  50.4685 12.61977647174269
GLOBALSTAR M036         
1 25623U 99004C   24210.17431834 -.00000029  00000+0  77680-3 0  9992
2 25623  51.9990  14.3299 0011586 145.3426  26.1142 11.86572120140494
GLOBALSTAR M038         
1 25624U 99004D   24210.50961838 -.00000069  00000+0  21557-3 0  9998
2 25624  51.9975 283.7122 0002247 108.7540 264.2000 12.32503780162422
GLOBALSTAR M022         
1 25649U 99012A   24210.42013468 -.00000051  00000+0  43316-3 0  9990
2 25649  52.0044  91.0386 0001748 252.8493 278.8413 12.02485511137501
GLOBALSTAR M041         
1 25650U 99012B   24210.04746396 -.00000044  00000+0  53180-3 0  9995
2 25650  52.0042 323.6206 0002913  58.0233 302.0887 11.96656513139724
GLOBALSTAR M046         
1 25651U 99012C   24209.97375247 -.00000024  00000+0  71268-3 0  9994
2 25651  52.0064  54.2203 0002134 348.4874 162.4912 12.09392436144780
GLOBALSTAR M037         
1 25652U 99012D   24210.05861543 -.00000086  00000+0  99493-4 0  9994
2 25652  52.0008  91.1347 0001517 166.4134 340.9877 12.62412835170393
